KUIPER-00176            
1 65788U 25217AC  26018.98134381  .00002696  00000+0  38267-3 0  9996
2 65788  51.8992 262.9151 0001077 111.7452 248.3625 14.79918033 17511
KUIPER-00101            
1 65947U 25228A   26018.92578894 -.00000456  00000+0 -30768-4 0  9993
2 65947  51.8963 220.6427 0001157 107.2894 252.8195 14.79913676 15868
KUIPER-00113            
1 65948U 25228B   26018.76226858  .00002350  00000+0  33691-3 0  9996
2 65948  51.8961 216.3825 0000675 125.2299 234.8727 14.79958514 15900
KUIPER-00117            
1 65949U 25228C   26018.86091355  .00000152  00000+0  48898-4 0  9994
2 65949  51.8967 218.4495 0000881 114.3140 245.7915 14.79924882 15884
KUIPER-00121            
1 65950U 25228D   26018.91670139  .00068011  00000+0  92913-2 0  9998
2 65950  51.8971 213.1613 0000735  42.9750  61.6117 14.77924544  5304
KUIPER-00122            
1 65951U 25228E   26018.28158063  .00002847  00000+0  40194-3 0  9996
2 65951  51.8971 225.9822 0001404 130.8015 229.3070 14.79976623 15739
KUIPER-00123            
1 65952U 25228F   26018.85563763  .00002432  00000+0  34780-3 0  9991
2 65952  51.8964 223.4679 0000740 121.7175 238.3859 14.79953261 15810
KUIPER-00124            
1 65953U 25228G   26018.79609761  .00002301  00000+0  33069-3 0  9998
2 65953  51.8965 216.2163 0000754 100.4933 259.6115 14.79937485 15913
